{"fetched_at":"2026-05-12T14:21:58Z","count":8270,"tles":[{"name":"STARLINK-2037","line1":"1 47653U 21012AK  23362.14650966  .00005202  00000+0  36787-3 0  9996","line2":"2 47653  53.0550  54.3777 0001380  84.1550 275.9596 15.06398820158787","category":"Starlink"},{"name":"2023-091AW","line1":"1 57322U 23091AW  23208.42980990  .00011575  00000+0  84676-3 0  9992","line2":"2 57322  97.6609 258.8459 0019473 148.2670 211.9734 15.03604909  2366","category":"Other"},{"name":"STARLINK-11606 [DTC]","line1":"1 63559U 25075M   26132.02503318  .00118632  00000+0  91373-3 0  9999","line2":"2 63559  42.9995 131.6747 0001502 269.4006  90.6690 15.70870030 63215","category":"Starlink"},{"name":"STARLINK-34397","line1":"1 64356U 25126N   26131.68229891  .00001101  00000+0  10003-3 0  9997","line2":"2 64356  70.0008 235.7830 0003389 267.7472  92.3299 14.98331385 50113","category":"Starlink"},{"name":"STARLINK-36267","line1":"1 67198U 25304G   26132.11369361 -.00002313  00000+0 -18615-3 0  9993","line2":"2 67198  70.0018  14.5961 0003090 270.7308  89.3497 14.98319874 23351","category":"Starlink"},{"name":"IUS R/B(2)","line1":"1 20357U 89090D   26104.04052565 -.00000391  00000+0  00000+0 0  9995","line2":"2 20357  17.3064 343.2789 0334688 100.2918 263.4756  0.99522973 24723","category":"Other"},{"name":"STARLINK-5117","line1":"1 54172U 22141R   26132.11885191  .00000235  00000+0  32851-4 0  9999","line2":"2 54172  53.2181  79.3472 0001476  83.7837 276.3324 15.08838867195430","category":"Starlink"},{"name":"STARLINK-11288 [DTC]","line1":"1 61002U 24158N   26131.83000173  .00004580  00000+0  42673-4 0  9996","line2":"2 61002  53.1591 329.8471 0000964  78.3800 281.7326 15.69690234 97509","category":"Starlink"},{"name":"STARLINK-35207","line1":"1 65500U 25198J   26131.81915581  .00012152  00000+0  42176-3 0  9995","line2":"2 65500  53.1608 337.8986 0001081  79.4515 280.6608 15.30197234 38282","category":"Starlink"},{"name":"STARLINK-2646","line1":"1 48642U 21044E   26132.07052536 -.00005471  00000+0 -16453-3 0  9997","line2":"2 48642  53.1592 179.2080 0000983  87.3333 272.7781 15.31727049273538","category":"Starlink"},{"name":"STARLINK-30606","line1":"1 58109U 23161N   26131.66652508  .00000344  00000+0  23735-4 0  9991","line2":"2 58109  53.1607 233.0100 0001285  92.0239 268.0909 15.30187105144067","category":"Starlink"},{"name":"STARLINK-37075","line1":"1 68255U 26054Z   26132.05781192  .00016761  00000+0  39361-3 0  9995","line2":"2 68255  53.1593   1.1418 0001004  75.3818 284.7299 15.42171999  8711","category":"Starlink"},{"name":"FENGYUN 1C DEB","line1":"1 29950U 99025JY  26104.85534398  .00000088  00000+0  73296-4 0  9994","line2":"2 29950  98.7241 137.4123 0032051 253.3931 280.4051 14.10392976990264","category":"Weather"},{"name":"STARLINK-1420","line1":"1 45695U 20035AQ  26132.10145804  .00037845  00000+0  37587-3 0  9995","line2":"2 45695  53.0456  73.5157 0006693  53.5554 306.6077 15.65385143329254","category":"Starlink"},{"name":"STARLINK-6093","line1":"1 56099U 23046G   23362.05761718  .00001081  00000+0  95039-4 0  9994","line2":"2 56099  43.0025 200.3752 0001182 274.4410  85.6297 15.02544271 41865","category":"Starlink"},{"name":"STARLINK-32691","line1":"1 62501U 25003Q   26132.12536148  .00008520  00000+0  31869-3 0  9992","line2":"2 62501  43.0050 290.6801 0001679 273.3835  86.6825 15.27586921 76361","category":"Starlink"},{"name":"STARLINK-35419","line1":"1 66559U 25268C   26132.01555144  .00016098  00000+0  59288-3 0  9991","line2":"2 66559  43.0015 349.5169 0001316 266.0600  94.0101 15.27599761 27640","category":"Starlink"},{"name":"COMSATBW-1","line1":"1 35943U 09054B   26132.04986155  .00000036  00000+0  00000+0 0  9991","line2":"2 35943   0.0298  92.6701 0003221 323.0743 255.0672  1.00270010 60947","category":"Other"},{"name":"2022-019U","line1":"1 51842U 22019U   24210.27938735  .17673510  26454-5  19949-3 0  9998","line2":"2 51842  97.4799 321.9418 0016430 255.4195 164.7422 16.49305805135679","category":"Other"},{"name":"STARLINK-31478","line1":"1 59188U 24045L   26132.19085191  .00008573  00000+0  32065-3 0  9995","line2":"2 59188  43.0050  93.8637 0001056 269.3910  90.6820 15.27586129122874","category":"Starlink"},{"name":"UNKNOWN","line1":"1 81995U          26100.47282656  .00005876  00000+0  10911-2 0  9990","line2":"2 81995  65.7454 172.9541 0513695 238.7091 116.2725 14.05513926620900","category":"Other"},{"name":"COSMOS 2251 DEB","line1":"1 39590U 93036BUV 23177.68016792  .00024928  00000+0  37304-2 0  9999","line2":"2 39590  74.0223 265.2012 0007062 175.6712 334.6333 14.74585493632138","category":"Other"},{"name":"STARLINK-4509","line1":"1 53404U 22097S   26131.44360504  .00000768  00000+0  66334-4 0  9991","line2":"2 53404  53.2166 192.3396 0001252  85.7471 274.3664 15.08829842208128","category":"Starlink"},{"name":"STARLINK-32081","line1":"1 60348U 24136V   26132.01862971 -.00000507  00000+0 -49905-5 0  9990","line2":"2 60348  53.1600 141.2815 0001217  87.2701 272.8439 15.30189492 99360","category":"Starlink"},{"name":"FENGYUN 1C DEB","line1":"1 31385U 99025BSR 26100.75640402  .00000457  00000+0  13334-3 0  9994","line2":"2 31385  98.9472 202.0972 0134247  61.4515  89.7336 14.44195089  3336","category":"Weather"},{"name":"STARLINK-2159","line1":"1 47745U 21017Z   26132.09000951  .00076910  00000+0  11643-2 0  9995","line2":"2 47745  53.1566 261.2605 0004662 306.8437  53.2146 15.54002098287660","category":"Starlink"},{"name":"STARLING 4","line1":"1 57386U 23100A   26132.18698698  .00001316  00000+0  95161-4 0  9990","line2":"2 57386  99.5114 141.5307 0005825 220.5839 139.4949 15.06520570154482","category":"Other"},{"name":"STARLINK-33717","line1":"1 63648U 25083Q   26132.01065954  .00011806  00000+0  43769-3 0  9996","line2":"2 63648  43.0023   7.3784 0001330 261.3547  98.7154 15.27592994 59758","category":"Starlink"},{"name":"STARLINK-34503","line1":"1 64420U 25129J   26132.10851751  .00002263  00000+0  19732-3 0  9994","line2":"2 64420  70.0004 274.6770 0002948 272.6205  87.4616 14.98346124 50727","category":"Starlink"},{"name":"DCS-1","line1":"1 67263U 25313R   26132.11326728  .00005252  00000+0  22705-3 0  9994","line2":"2 67263  97.3961 207.3840 0016091 128.0250 232.2442 15.22776878 20464","category":"Other"},{"name":"SL-6 R/B(2)","line1":"1 21429U 91043D   26099.50197425  .00000969  00000+0  00000+0 0  9996","line2":"2 21429  63.6949 255.4496 6868304 262.5422  21.1409  1.96662792250013","category":"Other"},{"name":"LEMUR-2-URAMCHANSOL","line1":"1 43183U 18014D   25170.50392138  .11173884  26305-5  90952-3 0  9991","line2":"2 43183  97.4754  94.9221 0007908 251.7223 108.3216 16.39902852405487","category":"Other"},{"name":"THYBOLT-2","line1":"1 54364U 22158D   24143.79771103  .10201905  25435-5  93186-3 0  9991","line2":"2 54364  97.4055 256.8201 0014510 276.0875  83.8770 16.38601833 83546","category":"Other"},{"name":"JILIN-01 KUANFU 02B 4","line1":"1 61192U 24169D   26132.19915369  .00002915  00000+0  18400-3 0  9990","line2":"2 61192  97.5513 221.6448 0010363  53.7739 306.4446 15.09825080 90403","category":"Other"},{"name":"CZ-7A R/B","line1":"1 65564U 25202B   25254.39572250  .01132414 -10468-5  24484-3 0  9994","line2":"2 65564  20.0832  29.7830 3522366 136.7802 257.0182  8.63078683   213","category":"Other"},{"name":"PRISM (HITOMI)","line1":"1 33493U 09002B   25105.81745199  .09999459  29698-5  15791-2 0  9998","line2":"2 33493  98.1284 195.2006 0015204 276.0900  83.8661 16.33501591885631","category":"Other"},{"name":"ONEWEB-0222","line1":"1 48775U 21045J   26132.07316860  .00000041  00000+0  76137-4 0  9990","line2":"2 48775  87.8983 266.3828 0001725  94.9087 265.2241 13.15548698239650","category":"Other"},{"name":"PARUS","line1":"1 58173U 98067VZ  23316.10043729  .08361054  31139+0  13202-1 0  9997","line2":"2 58173  51.6170 313.6367 0011230 121.7804 238.4306 16.11601195  2723","category":"Other"},{"name":"PROGRESS-MS 33","line1":"1 68319U 26058A   26132.19887557  .00004768  00000+0  94032-4 0  9998","line2":"2 68319  51.6311 118.2489 0007482  49.7800 310.3842 15.49191983  7950","category":"Other"},{"name":"FENGYUN 1C DEB","line1":"1 30024U 99025MZ  23178.34124139  .00026817  00000+0  10371-2 0  9999","line2":"2 30024  98.6082  92.9414 0133647  37.9075 323.1472 15.18196846893290","category":"Weather"},{"name":"STARLINK-1490","line1":"1 45777U 20038AZ  23362.46664165  .00007753  00000+0  35853-3 0  9995","line2":"2 45777  53.0542 178.7773 0003210  67.2599 292.8735 15.21084546197240","category":"Starlink"},{"name":"BB 2","line1":"1 56170U 23050J   26132.02471826  .00000067  00000+0  35575-4 0  9994","line2":"2 56170  80.9996 114.5445 0011417  41.9183 318.2855 14.03018541156580","category":"Other"},{"name":"STARLINK-11547 [DTC]","line1":"1 62587U 25008A   26131.96602769  .00135594  00000+0  10403-2 0  9997","line2":"2 62587  42.9994 104.9650 0001520 301.5017  58.5702 15.70902615 76069","category":"Starlink"},{"name":"STARLINK-3692","line1":"1 51958U 22025C   26132.15318617  .00001398  00000+0  56819-4 0  9998","line2":"2 51958  53.1610  78.4493 0001172  95.7654 264.3481 15.31701181230896","category":"Starlink"},{"name":"STARLINK-31425","line1":"1 59253U 24049Y   26132.08448574  .00000383  00000+0  23492-4 0  9994","line2":"2 59253  43.0107 145.3351 0004334 270.1459  89.8896 15.27565475122094","category":"Starlink"},{"name":"FLOCK 1C-6","line1":"1 40036C 14033AC  23256.33909722  .00021776  00000-0  16064-2 0  2565","line2":"2 40036  98.0553 223.9813 0006192  43.3213 191.1486 15.03339406    12","category":"Other"},{"name":"STARLINK-4433","line1":"1 53478U 22099P   26132.05274596  .00000278  00000+0  23362-4 0  9997","line2":"2 53478  97.5038 252.3457 0000871 120.5208 239.6105 15.05645210205500","category":"Starlink"},{"name":"STARLINK-32186","line1":"1 60412U 24141Q   26131.90443672  .00000085  00000+0  13652-4 0  9996","line2":"2 60412  53.1618 308.6384 0001061  81.3839 278.7283 15.34391688 99206","category":"Starlink"}]}